STARLINK-4038           
1 53150U 22083U   25106.51955480  .00002372  00000+0  16707-3 0  9997
2 53150  53.2168 192.8466 0001542 102.3200 257.7965 15.08842448151964
STARLINK-4040           
1 53151U 22083V   25106.57474848  .00001599  00000+0  11854-3 0  9996
2 53151  53.2180 192.5913 0001623 114.2180 245.8982 15.08844386151973
STARLINK-4045           
1 53152U 22083W   25106.64834960  .00000565  00000+0  53572-4 0  9996
2 53152  53.2179 192.2630 0001443 107.8538 252.2611 15.08845892151985
STARLINK-4098           
1 53153U 22083X   25106.50482728  .00001720  00000+0  12608-3 0  9991
2 53153  53.2178 192.9026 0001491 104.7585 255.3573 15.08847130151968
STARLINK-4077           
1 53154U 22083Y   25106.64467449  .00003017  00000+0  20751-3 0  9999
2 53154  53.2165 192.2813 0001494 102.4858 257.6301 15.08848381151988
STARLINK-4088           
1 53155U 22083Z   25106.62996166  .00001799  00000+0  13111-3 0  9998
2 53155  53.2182 192.3450 0001739 100.8461 259.2727 15.08843391152628
STARLINK-4087           
1 53156U 22083AA  25106.55266475 -.00001056  00000+0 -48313-4 0  9995
2 53156  53.2165 192.5676 0001117  99.6092 260.5026 15.08830678152606
STARLINK-4093           
1 53157U 22083AB  25106.55635561  .00001100  00000+0  87185-4 0  9990
2 53157  53.2181 192.6753 0001543  77.3780 282.7384 15.08841033152602
STARLINK-4054           
1 53158U 22083AC  25106.56738447  .00001756  00000+0  12834-3 0  9994
2 53158  53.2181 192.6278 0001449  76.3747 283.7407 15.08859496152601
STARLINK-4111           
1 53159U 22083AD  25106.54899551  .00002139  00000+0  15243-3 0  9990
2 53159  53.2162 192.7066 0001398  55.9790 304.1335 15.08840118151979
STARLINK-4096           
1 53160U 22083AE  25106.56003851  .00003132  00000+0  21478-3 0  9995
2 53160  53.2167 192.6580 0001313  89.4089 270.7054 15.08845096152603
STARLINK-4055           
1 53161U 22083AF  25106.80290408  .00003050  00000+0  20956-3 0  9998
2 53161  53.2155 191.5711 0001181 102.1739 257.9385 15.08848012152013
STARLINK-4114           
1 53162U 22083AG  25106.55360175  .00029834  00000+0  18803-2 0  9995
2 53162  53.2153 192.7005 0001437  64.2251 295.8889 15.08924686152609
STARLINK-4104           
1 53163U 22083AH  25106.61157055  .00001559  00000+0  11603-3 0  9990
2 53163  53.2188 192.5709 0001661  80.8994 279.2186 15.08840633151989
