[
  {
    "OBJECT_NAME": "STARLINK-4038",
    "OBJECT_ID": "2022-083U",
    "EPOCH": "2025-04-16T12:28:09.534720",
    "MEAN_MOTION": 15.08842448,
    "ECCENTRICITY": 0.0001542,
    "INCLINATION": 53.2168,
    "RA_OF_ASC_NODE": 192.8466,
    "ARG_OF_PERICENTER": 102.32,
    "MEAN_ANOMALY": 257.7965,
    "EPHEMERIS_TYPE": 0,
    "CLASSIFICATION_TYPE": "U",
    "NORAD_CAT_ID": 53150,
    "ELEMENT_SET_NO": 999,
    "REV_AT_EPOCH": 15196,
    "BSTAR": 0.00016707,
    "MEAN_MOTION_DOT": 2.372e-5,
    "MEAN_MOTION_DDOT": 0
  },
  {
    "OBJECT_NAME": "STARLINK-4040",
    "OBJECT_ID": "2022-083V",
    "EPOCH": "2025-04-16T13:47:38.268672",
    "MEAN_MOTION": 15.08844386,
    "ECCENTRICITY": 0.0001623,
    "INCLINATION": 53.218,
    "RA_OF_ASC_NODE": 192.5913,
    "ARG_OF_PERICENTER": 114.218,
    "MEAN_ANOMALY": 245.8982,
    "EPHEMERIS_TYPE": 0,
    "CLASSIFICATION_TYPE": "U",
    "NORAD_CAT_ID": 53151,
    "ELEMENT_SET_NO": 999,
    "REV_AT_EPOCH": 15197,
    "BSTAR": 0.00011854,
    "MEAN_MOTION_DOT": 1.599e-5,
    "MEAN_MOTION_DDOT": 0
  },
  {
    "OBJECT_NAME": "STARLINK-4045",
    "OBJECT_ID": "2022-083W",
    "EPOCH": "2025-04-16T15:33:37.405440",
    "MEAN_MOTION": 15.08845892,
    "ECCENTRICITY": 0.0001443,
    "INCLINATION": 53.2179,
    "RA_OF_ASC_NODE": 192.263,
    "ARG_OF_PERICENTER": 107.8538,
    "MEAN_ANOMALY": 252.2611,
    "EPHEMERIS_TYPE": 0,
    "CLASSIFICATION_TYPE": "U",
    "NORAD_CAT_ID": 53152,
    "ELEMENT_SET_NO": 999,
    "REV_AT_EPOCH": 15198,
    "BSTAR": 5.3572e-5,
    "MEAN_MOTION_DOT": 5.65e-6,
    "MEAN_MOTION_DDOT": 0
  },
  {
    "OBJECT_NAME": "STARLINK-4098",
    "OBJECT_ID": "2022-083X",
    "EPOCH": "2025-04-16T12:06:57.076992",
    "MEAN_MOTION": 15.0884713,
    "ECCENTRICITY": 0.0001491,
    "INCLINATION": 53.2178,
    "RA_OF_ASC_NODE": 192.9026,
    "ARG_OF_PERICENTER": 104.7585,
    "MEAN_ANOMALY": 255.3573,
    "EPHEMERIS_TYPE": 0,
    "CLASSIFICATION_TYPE": "U",
    "NORAD_CAT_ID": 53153,
    "ELEMENT_SET_NO": 999,
    "REV_AT_EPOCH": 15196,
    "BSTAR": 0.00012608,
    "MEAN_MOTION_DOT": 1.72e-5,
    "MEAN_MOTION_DDOT": 0
  },
  {
    "OBJECT_NAME": "STARLINK-4077",
    "OBJECT_ID": "2022-083Y",
    "EPOCH": "2025-04-16T15:28:19.875936",
    "MEAN_MOTION": 15.08848381,
    "ECCENTRICITY": 0.0001494,
    "INCLINATION": 53.2165,
    "RA_OF_ASC_NODE": 192.2813,
    "ARG_OF_PERICENTER": 102.4858,
    "MEAN_ANOMALY": 257.6301,
    "EPHEMERIS_TYPE": 0,
    "CLASSIFICATION_TYPE": "U",
    "NORAD_CAT_ID": 53154,
    "ELEMENT_SET_NO": 999,
    "REV_AT_EPOCH": 15198,
    "BSTAR": 0.00020751,
    "MEAN_MOTION_DOT": 3.017e-5,
    "MEAN_MOTION_DDOT": 0
  },
  {
    "OBJECT_NAME": "STARLINK-4088",
    "OBJECT_ID": "2022-083Z",
    "EPOCH": "2025-04-16T15:07:08.687424",
    "MEAN_MOTION": 15.08843391,
    "ECCENTRICITY": 0.0001739,
    "INCLINATION": 53.2182,
    "RA_OF_ASC_NODE": 192.345,
    "ARG_OF_PERICENTER": 100.8461,
    "MEAN_ANOMALY": 259.2727,
    "EPHEMERIS_TYPE": 0,
    "CLASSIFICATION_TYPE": "U",
    "NORAD_CAT_ID": 53155,
    "ELEMENT_SET_NO": 999,
    "REV_AT_EPOCH": 15262,
    "BSTAR": 0.00013111,
    "MEAN_MOTION_DOT": 1.799e-5,
    "MEAN_MOTION_DDOT": 0
  },
  {
    "OBJECT_NAME": "STARLINK-4087",
    "OBJECT_ID": "2022-083AA",
    "EPOCH": "2025-04-16T13:15:50.234400",
    "MEAN_MOTION": 15.08830678,
    "ECCENTRICITY": 0.0001117,
    "INCLINATION": 53.2165,
    "RA_OF_ASC_NODE": 192.5676,
    "ARG_OF_PERICENTER": 99.6092,
    "MEAN_ANOMALY": 260.5026,
    "EPHEMERIS_TYPE": 0,
    "CLASSIFICATION_TYPE": "U",
    "NORAD_CAT_ID": 53156,
    "ELEMENT_SET_NO": 999,
    "REV_AT_EPOCH": 15260,
    "BSTAR": -4.8313e-5,
    "MEAN_MOTION_DOT": -1.056e-5,
    "MEAN_MOTION_DDOT": 0
  },
  {
    "OBJECT_NAME": "STARLINK-4093",
    "OBJECT_ID": "2022-083AB",
    "EPOCH": "2025-04-16T13:21:09.124704",
    "MEAN_MOTION": 15.08841033,
    "ECCENTRICITY": 0.0001543,
    "INCLINATION": 53.2181,
    "RA_OF_ASC_NODE": 192.6753,
    "ARG_OF_PERICENTER": 77.378,
    "MEAN_ANOMALY": 282.7384,
    "EPHEMERIS_TYPE": 0,
    "CLASSIFICATION_TYPE": "U",
    "NORAD_CAT_ID": 53157,
    "ELEMENT_SET_NO": 999,
    "REV_AT_EPOCH": 15260,
    "BSTAR": 8.7185e-5,
    "MEAN_MOTION_DOT": 1.1e-5,
    "MEAN_MOTION_DDOT": 0
  },
  {
    "OBJECT_NAME": "STARLINK-4054",
    "OBJECT_ID": "2022-083AC",
    "EPOCH": "2025-04-16T13:37:02.018208",
    "MEAN_MOTION": 15.08859496,
    "ECCENTRICITY": 0.0001449,
    "INCLINATION": 53.2181,
    "RA_OF_ASC_NODE": 192.6278,
    "ARG_OF_PERICENTER": 76.3747,
    "MEAN_ANOMALY": 283.7407,
    "EPHEMERIS_TYPE": 0,
    "CLASSIFICATION_TYPE": "U",
    "NORAD_CAT_ID": 53158,
    "ELEMENT_SET_NO": 999,
    "REV_AT_EPOCH": 15260,
    "BSTAR": 0.00012834,
    "MEAN_MOTION_DOT": 1.756e-5,
    "MEAN_MOTION_DDOT": 0
  },
  {
    "OBJECT_NAME": "STARLINK-4111",
    "OBJECT_ID": "2022-083AD",
    "EPOCH": "2025-04-16T13:10:33.212064",
    "MEAN_MOTION": 15.08840118,
    "ECCENTRICITY": 0.0001398,
    "INCLINATION": 53.2162,
    "RA_OF_ASC_NODE": 192.7066,
    "ARG_OF_PERICENTER": 55.979,
    "MEAN_ANOMALY": 304.1335,
    "EPHEMERIS_TYPE": 0,
    "CLASSIFICATION_TYPE": "U",
    "NORAD_CAT_ID": 53159,
    "ELEMENT_SET_NO": 999,
    "REV_AT_EPOCH": 15197,
    "BSTAR": 0.00015243,
    "MEAN_MOTION_DOT": 2.139e-5,
    "MEAN_MOTION_DDOT": 0
  },
  {
    "OBJECT_NAME": "STARLINK-4096",
    "OBJECT_ID": "2022-083AE",
    "EPOCH": "2025-04-16T13:26:27.327264",
    "MEAN_MOTION": 15.08845096,
    "ECCENTRICITY": 0.0001313,
    "INCLINATION": 53.2167,
    "RA_OF_ASC_NODE": 192.658,
    "ARG_OF_PERICENTER": 89.4089,
    "MEAN_ANOMALY": 270.7054,
    "EPHEMERIS_TYPE": 0,
    "CLASSIFICATION_TYPE": "U",
    "NORAD_CAT_ID": 53160,
    "ELEMENT_SET_NO": 999,
    "REV_AT_EPOCH": 15260,
    "BSTAR": 0.00021478,
    "MEAN_MOTION_DOT": 3.132e-5,
    "MEAN_MOTION_DDOT": 0
  },
  {
    "OBJECT_NAME": "STARLINK-4055",
    "OBJECT_ID": "2022-083AF",
    "EPOCH": "2025-04-16T19:16:10.912512",
    "MEAN_MOTION": 15.08848012,
    "ECCENTRICITY": 0.0001181,
    "INCLINATION": 53.2155,
    "RA_OF_ASC_NODE": 191.5711,
    "ARG_OF_PERICENTER": 102.1739,
    "MEAN_ANOMALY": 257.9385,
    "EPHEMERIS_TYPE": 0,
    "CLASSIFICATION_TYPE": "U",
    "NORAD_CAT_ID": 53161,
    "ELEMENT_SET_NO": 999,
    "REV_AT_EPOCH": 15201,
    "BSTAR": 0.00020956,
    "MEAN_MOTION_DOT": 3.05e-5,
    "MEAN_MOTION_DDOT": 0
  },
  {
    "OBJECT_NAME": "STARLINK-4114",
    "OBJECT_ID": "2022-083AG",
    "EPOCH": "2025-04-16T13:17:11.191200",
    "MEAN_MOTION": 15.08924686,
    "ECCENTRICITY": 0.0001437,
    "INCLINATION": 53.2153,
    "RA_OF_ASC_NODE": 192.7005,
    "ARG_OF_PERICENTER": 64.2251,
    "MEAN_ANOMALY": 295.8889,
    "EPHEMERIS_TYPE": 0,
    "CLASSIFICATION_TYPE": "U",
    "NORAD_CAT_ID": 53162,
    "ELEMENT_SET_NO": 999,
    "REV_AT_EPOCH": 15260,
    "BSTAR": 0.0018803,
    "MEAN_MOTION_DOT": 0.00029834,
    "MEAN_MOTION_DDOT": 0
  },
  {
    "OBJECT_NAME": "STARLINK-4104",
    "OBJECT_ID": "2022-083AH",
    "EPOCH": "2025-04-16T14:40:39.695520",
    "MEAN_MOTION": 15.08840633,
    "ECCENTRICITY": 0.0001661,
    "INCLINATION": 53.2188,
    "RA_OF_ASC_NODE": 192.5709,
    "ARG_OF_PERICENTER": 80.8994,
    "MEAN_ANOMALY": 279.2186,
    "EPHEMERIS_TYPE": 0,
    "CLASSIFICATION_TYPE": "U",
    "NORAD_CAT_ID": 53163,
    "ELEMENT_SET_NO": 999,
    "REV_AT_EPOCH": 15198,
    "BSTAR": 0.00011603,
    "MEAN_MOTION_DOT": 1.559e-5,
    "MEAN_MOTION_DDOT": 0
  }
]
